NORAD_CAT_ID,OBJECT_NAME,OBJECT_TYPE,EPOCH,MEAN_MOTION,ECCENTRICITY,INCLINATION,RA_OF_ASC_NODE,ARG_OF_PERICENTER,MEAN_ANOMALY,BSTAR,MEAN_MOTION_DOT,MEAN_MOTION_DDOT,TLE_LINE0,TLE_LINE1,TLE_LINE2,SEMIMAJOR_AXIS,PERIOD,APOGEE,PERIGEE,DECAYED
54775.0,STARLINK-5465,PAYLOAD,2023-04-06 14:00:44,15.08844992,0.000132,53.2174,158.8658,90.9182,269.1961,0.00020143,2.92e-05,0.0,0 STARLINK-5465,1 54775U 22175T   23096.58385104  .00002920  00000-0  20143-3 0  9995,2 54775  53.2174 158.8658 0001320  90.9182 269.1961 15.08844992 16515,6917.865,95.437,540.643,538.817,0.0
54775.0,STARLINK-5465,PAYLOAD,2023-04-07 09:05:22,15.08839542,0.0001441,53.218,155.3003,90.1416,269.9741,0.0001257,1.713e-05,0.0,0 STARLINK-5465,1 54775U 22175T   23097.37873483  .00001713  00000-0  12570-3 0  9999,2 54775  53.2180 155.3003 0001441  90.1416 269.9741 15.08839542 16636,6917.882,95.438,540.744,538.75,0.0
54775.0,STARLINK-5465,PAYLOAD,2023-04-07 15:26:54,15.08848845,0.0001193,53.2169,154.1073,91.5622,268.5507,0.00019269,2.781e-05,0.0,0 STARLINK-5465,1 54775U 22175T   23097.64368784  .00002781  00000-0  19269-3 0  9990,2 54775  53.2169 154.1073 0001193  91.5622 268.5507 15.08848845 16670,6917.853,95.437,540.544,538.893,0.0
54775.0,STARLINK-5465,PAYLOAD,2023-04-07 20:13:04,15.08835255,0.0001261,53.2169,153.2153,86.2617,273.8519,-4.7964e-05,-1.051e-05,0.0,0 STARLINK-5465,1 54775U 22175T   23097.84241537 -.00001051  00000-0 -47964-4 0  9993,2 54775  53.2169 153.2153 0001261  86.2617 273.8519 15.08835255 16707,6917.895,95.438,540.632,538.888,0.0
54775.0,STARLINK-5465,PAYLOAD,2023-04-08 08:56:09,15.08844178,0.0001258,53.2167,150.8373,83.0033,277.1102,0.00011992,1.621e-05,0.0,0 STARLINK-5465,1 54775U 22175T   23098.37233125  .00001621  00000-0  11992-3 0  9998,2 54775  53.2167 150.8373 0001258  83.0033 277.1102 15.08844178 16782,6917.868,95.437,540.603,538.862,0.0
54775.0,STARLINK-5465,PAYLOAD,2023-04-08 12:06:55,15.08848431,0.0001329,53.2165,150.242,92.7358,267.3787,0.00020578,2.989e-05,0.0,0 STARLINK-5465,1 54775U 22175T   23098.50480961  .00002989  00000-0  20578-3 0  9993,2 54775  53.2165 150.2420 0001329  92.7358 267.3787 15.08848431 18961,6917.855,95.437,540.639,538.8,0.0
54775.0,STARLINK-5465,PAYLOAD,2023-04-09 07:11:33,15.08834276,0.0001333,53.2173,146.6756,101.3085,258.8056,-1.6405e-05,-5.49e-06,0.0,0 STARLINK-5465,1 54775U 22175T   23099.29969726 -.00000549  00000-0 -16405-4 0  9998,2 54775  53.2173 146.6756 0001333 101.3085 258.8056 15.08834276 16920,6917.898,95.438,540.685,538.841,0.0
54775.0,STARLINK-5465,PAYLOAD,2023-04-09 11:57:43,15.0883532,0.0001387,53.2169,145.7831,97.0991,263.0159,-3.2141e-06,-3.39e-06,0.0,0 STARLINK-5465,1 54775U 22175T   23099.49841747 -.00000339  00000-0 -32141-5 0  9995,2 54775  53.2169 145.7831 0001387  97.0991 263.0159 15.08835320 19112,6917.895,95.438,540.719,538.8,0.0
54775.0,STARLINK-5465,PAYLOAD,2023-04-09 19:54:38,15.0883873,0.0001359,53.2172,144.2961,93.2477,266.867,-3.0649e-05,-7.76e-06,0.0,0 STARLINK-5465,1 54775U 22175T   23099.82961593 -.00000776  00000-0 -30649-4 0  9999,2 54775  53.2172 144.2961 0001359  93.2477 266.8670 15.08838730 19162,6917.884,95.438,540.689,538.809,0.0
54775.0,STARLINK-5465,PAYLOAD,2023-04-10 07:02:20,15.08841125,0.0001077,53.2171,142.2138,109.3415,250.7694,0.00026026,3.857e-05,0.0,0 STARLINK-5465,1 54775U 22175T   23100.29329533  .00003857  00000-0  26026-3 0  9999,2 54775  53.2171 142.2138 0001077 109.3415 250.7694 15.08841125 19231,6917.877,95.437,540.487,538.997,0.0
54775.0,STARLINK-5465,PAYLOAD,2023-04-10 14:59:15,15.08851094,0.0001397,53.2167,140.7266,100.5128,259.6022,0.00021869,3.195e-05,0.0,0 STARLINK-5465,1 54775U 22175T   23100.62449000  .00003195  00000-0  21869-3 0  9993,2 54775  53.2167 140.7266 0001397 100.5128 259.6022 15.08851094 17125,6917.846,95.437,540.678,538.745,0.0
54775.0,STARLINK-5465,PAYLOAD,2023-04-10 19:45:25,15.08838532,4.09e-05,53.2173,139.8364,137.258,222.8444,5.4172e-05,5.75e-06,0.0,0 STARLINK-5465,1 54775U 22175T   23100.82321184  .00000575  00000-0  54172-4 0  9990,2 54775  53.2173 139.8364 0000409 137.2580 222.8444 15.08838532 19317,6917.885,95.438,540.033,539.467,0.0
54775.0,STARLINK-5465,PAYLOAD,2023-04-11 02:06:58,15.08837182,0.0001123,53.2168,138.645,98.7467,261.3652,0.00011561,1.552e-05,0.0,0 STARLINK-5465,1 54775U 22175T   23101.08817652  .00001552  00000-0  11561-3 0  9999,2 54775  53.2168 138.6450 0001123  98.7467 261.3652 15.08837182 17196,6917.889,95.438,540.531,538.977,0.0
54775.0,STARLINK-5465,PAYLOAD,2023-04-11 10:03:53,15.08847864,0.0001284,53.216,137.1583,94.8618,265.2521,0.00020752,3.017e-05,0.0,0 STARLINK-5465,1 54775U 22175T   23101.41937185  .00003017  00000-0  20752-3 0  9990,2 54775  53.2160 137.1583 0001284  94.8618 265.2521 15.08847864 19404,6917.856,95.437,540.61,538.833,0.0
54775.0,STARLINK-5465,PAYLOAD,2023-04-11 19:36:12,15.08840937,0.0001407,53.2158,135.3748,82.2075,277.9077,7.386e-05,8.88e-06,0.0,0 STARLINK-5465,1 54775U 22175T   23101.81681559  .00000888  00000-0  73860-4 0  9997,2 54775  53.2158 135.3748 0001407  82.2075 277.9077 15.08840937 19465,6917.878,95.437,540.716,538.769,0.0
54775.0,STARLINK-5465,PAYLOAD,2023-04-12 08:19:18,15.08832935,0.0001506,53.2161,132.9957,80.4572,279.659,-8.8577e-05,-1.697e-05,0.0,0 STARLINK-5465,1 54775U 22175T   23102.34674025 -.00001697  00000-0 -88577-4 0  9998,2 54775  53.2161 132.9957 0001506  80.4572 279.6590 15.08832935 17383,6917.902,95.438,540.809,538.725,0.0
54775.0,STARLINK-5465,PAYLOAD,2023-04-13 08:10:05,15.08845683,0.0001672,53.2171,128.5369,74.2554,285.8623,0.00018517,2.661e-05,0.0,0 STARLINK-5465,1 54775U 22175T   23103.34033783  .00002661  00000-0  18517-3 0  9995,2 54775  53.2171 128.5369 0001672  74.2554 285.8623 15.08845683 19693,6917.863,95.437,540.885,538.571,0.0
54775.0,STARLINK-5465,PAYLOAD,2023-04-13 12:56:14,15.08849,0.0001615,53.2163,127.644,76.9574,283.1598,0.00022423,3.283e-05,0.0,0 STARLINK-5465,1 54775U 22175T   23103.53905535  .00003283  00000-0  22423-3 0  9991,2 54775  53.2163 127.6440 0001615  76.9574 283.1598 15.08849000 17565,6917.853,95.437,540.835,538.601,0.0
54775.0,STARLINK-5465,PAYLOAD,2023-04-14 11:11:38,15.08847185,0.0001353,53.2159,123.4797,84.2856,275.829,0.00022117,3.234e-05,0.0,0 STARLINK-5465,1 54775U 22175T   23104.46641733  .00003234  00000-0  22117-3 0  9997,2 54775  53.2159 123.4797 0001353  84.2856 275.8290 15.08847185 19867,6917.858,95.437,540.659,538.787,0.0
54775.0,STARLINK-5465,PAYLOAD,2023-04-15 01:30:06,15.08842659,0.0001357,53.2154,120.8023,95.8866,264.2281,9.1587e-05,1.17e-05,0.0,0 STARLINK-5465,1 54775U 22175T   23105.06257790  .00001170  00000-0  91587-4 0  9995,2 54775  53.2154 120.8023 0001357  95.8866 264.2281 15.08842659 17791,6917.872,95.437,540.676,538.799,0.0
54775.0,STARLINK-5465,PAYLOAD,2023-04-15 07:51:39,15.08845587,0.0001387,53.216,119.6125,103.6397,256.4749,5.3107e-05,5.57e-06,0.0,0 STARLINK-5465,1 54775U 22175T   23105.32753620  .00000557  00000-0  53107-4 0  9991,2 54775  53.2160 119.6125 0001387 103.6397 256.4749 15.08845587 19996,6917.863,95.437,540.688,538.769,0.0
54775.0,STARLINK-5465,PAYLOAD,2023-04-15 17:23:58,15.08841718,0.0001439,53.2164,117.8288,99.9413,260.1742,1.3883e-05,-6.7e-07,0.0,0 STARLINK-5465,1 54775U 22175T   23105.72497807 -.00000067  00000-0  13883-4 0  9991,2 54775  53.2164 117.8288 0001439  99.9413 260.1742 15.08841718 20050,6917.875,95.437,540.736,538.745,0.0
54775.0,STARLINK-5465,PAYLOAD,2023-04-16 06:07:03,15.08838092,0.0001454,53.2169,115.4497,103.8953,256.2201,7.3489e-06,-1.71e-06,0.0,0 STARLINK-5465,1 54775U 22175T   23106.25490035 -.00000171  00000-0  73489-5 0  9991,2 54775  53.2169 115.4497 0001454 103.8953 256.2201 15.08838092 20138,6917.886,95.438,540.757,538.745,0.0
54775.0,STARLINK-5465,PAYLOAD,2023-04-16 17:14:45,15.08838741,0.0001319,53.2172,113.3692,103.1467,256.9673,4.4382e-06,-2.17e-06,0.0,0 STARLINK-5465,1 54775U 22175T   23106.71858070 -.00000217  00000-0  44382-5 0  9990,2 54775  53.2172 113.3692 0001319 103.1467 256.9673 15.08838741 20208,6917.884,95.438,540.662,538.837,0.0
54775.0,STARLINK-5465,PAYLOAD,2023-04-17 07:33:14,15.08836401,0.0001472,53.2186,110.6931,104.6792,255.4364,4.9125e-05,4.94e-06,0.0,0 STARLINK-5465,1 54775U 22175T   23107.31474661  .00000494  00000-0  49125-4 0  9992,2 54775  53.2186 110.6931 0001472 104.6792 255.4364 15.08836401 20297,6917.891,95.438,540.775,538.738,0.0
54775.0,STARLINK-5465,PAYLOAD,2023-04-18 07:24:00,15.08841131,0.000135,53.2186,106.2344,104.9989,255.1153,0.00010759,1.425e-05,0.0,0 STARLINK-5465,1 54775U 22175T   23108.30834475  .00001425  00000-0  10759-3 0  9990,2 54775  53.2186 106.2344 0001350 104.9989 255.1153 15.08841131 20448,6917.877,95.437,540.676,538.808,0.0
54775.0,STARLINK-5465,PAYLOAD,2023-04-18 16:56:20,15.08836881,0.0001388,53.219,104.447,83.7924,276.3226,5.996e-05,6.66e-06,0.0,0 STARLINK-5465,1 54775U 22175T   23108.70579006  .00000666  00000-0  59960-4 0  9994,2 54775  53.2190 104.4470 0001388  83.7924 276.3226 15.08836881 20506,6917.89,95.438,540.715,538.795,0.0
54775.0,STARLINK-5465,PAYLOAD,2023-04-19 08:50:11,15.08837713,0.0001163,53.2178,101.4734,86.4887,273.6238,6.6853e-05,7.76e-06,0.0,0 STARLINK-5465,1 54775U 22175T   23109.36819150  .00000776  00000-0  66853-4 0  9995,2 54775  53.2178 101.4734 0001163  86.4887 273.6238 15.08837713 20600,6917.887,95.438,540.557,538.948,0.0
54775.0,STARLINK-5465,PAYLOAD,2023-04-19 16:47:07,15.08842703,0.0001275,53.2183,99.9884,79.028,281.0856,9.0304e-05,1.15e-05,0.0,0 STARLINK-5465,1 54775U 22175T   23109.69938825  .00001150  00000-0  90304-4 0  9997,2 54775  53.2183  99.9884 0001275  79.0280 281.0856 15.08842703 20651,6917.872,95.437,540.619,538.855,0.0
54775.0,STARLINK-5465,PAYLOAD,2023-04-20 08:40:57,15.08851342,0.0001133,53.2173,97.0148,88.2808,271.8314,0.00012679,1.731e-05,0.0,0 STARLINK-5465,1 54775U 22175T   23110.36177989  .00001731  00000-0  12679-3 0  9992,2 54775  53.2173  97.0148 0001133  88.2808 271.8314 15.08851342 20759,6917.846,95.437,540.495,538.927,0.0
